From:	Horizons Ephemeris System <horizons@ssd.jpl.nasa.gov>
Sent:	Friday, December 4, 2020 11:45 AM
Subject:	[Horizons] MAJOR BODY #C(usr={180.,75.,.600^G}@301)_T(301) (1/1)

 Automated mail xmit by MAIL_REQUEST, PID= 12532 Fri Dec  4 09:45:20 2020
++++++++++++++++++++++++++++++++ (part 1 of 1)  +++++++++++++++++++++++++++++++
*******************************************************************************
 Revised: July 31, 2013             Moon / (Earth)                          301
 
 GEOPHYSICAL DATA (updated 2018-Aug-15):
  Vol. mean radius, km  = 1737.53+-0.03    Mass, x10^22 kg       =    7.349
  Radius (gravity), km  = 1738.0           Surface emissivity    =    0.92
  Radius (IAU), km      = 1737.4           GM, km^3/s^2          = 4902.800066
  Density, g/cm^3       =    3.3437        GM 1-sigma, km^3/s^2  =  +-0.0001  
  V(1,0)                =   +0.21          Surface accel., m/s^2 =    1.62
  Earth/Moon mass ratio = 81.3005690769    Farside crust. thick. = ~80 - 90 km
  Mean crustal density  = 2.97+-.07 g/cm^3 Nearside crust. thick.= 58+-8 km 
  Heat flow, Apollo 15  = 3.1+-.6 mW/m^2   Mean angular diameter = 31'05.2"
  Heat flow, Apollo 17  = 2.2+-.5 mW/m^2   Sid. rot. rate, rad/s = 0.0000026617
  Geometric Albedo      = 0.12             Mean solar day        = 29.5306 d
  Obliquity to orbit    = 6.67 deg         Orbit period          = 27.321582 d
  Semi-major axis, a    = 384400 km        Eccentricity          = 0.05490
  Mean motion, rad/s    = 2.6616995x10^-6  Inclination           = 5.145 deg
  Apsidal period        = 3231.50 d        Nodal period          = 6798.38 d
                                 Perihelion  Aphelion    Mean
  Solar Constant (W/m^2)         1414+-7     1323+-7     1368+-7
  Maximum Planetary IR (W/m^2)   1314        1226        1268
  Minimum Planetary IR (W/m^2)      5.2         5.2         5.2
********************************************************************************
 
 
*******************************************************************************
Ephemeris / MAIL_REQUEST Fri Dec  4 09:45:19 2020 Pasadena, USA  / Horizons
*******************************************************************************
Target body name: Moon (301)                      {source: DE431mx}
Center body name: Moon (301)                      {source: DE431mx}
Center-site name: (user defined site below)
*******************************************************************************
Start time      : A.D. 2020-Jan-01 00:00:00.0000 TDB
Stop  time      : A.D. 2039-Jan-01 00:00:00.0000 TDB
Step-size       : 10000 steps
*******************************************************************************
Center geodetic : 180.000000,75.0000000,0.6000000 {E-lon(deg),Lat(deg),Alt(km)}
Center cylindric: 180.000000,449.827500,1678.7791 {E-lon(deg),Dxy(km),Dz(km)}
Center pole/equ : IAU_MOON                        {East-longitude positive}
Center radii    : 1737.4 x 1737.4 x 1737.4 km     {Equator, meridian, pole}    
Output units    : KM-S
Output type     : GEOMETRIC cartesian states
Output format   : 3 (position, velocity, LT, range, range-rate)
Reference frame : Ecliptic of J2000.0
*******************************************************************************
JDTDB
   X     Y     Z
   VX    VY    VZ
   LT    RG    RR
*******************************************************************************
$$SOE
2461164.684000001 = A.D. 2026-May-04 04:24:57.6001 TDB 
   1.290205890258373E+02  3.822798606107226E+02 -1.690520569463405E+03
  -1.127999842868193E-03  3.939779575288099E-04  3.001817683599873E-06
   5.797343974543886E-03  1.738000000000001E+03 -4.192082047815067E-20
2461165.378000001 = A.D. 2026-May-04 21:04:19.2001 TDB 
   5.979130376904753E+01  4.004233161893444E+02 -1.690186429908112E+03
  -1.176223387354518E-03  2.099069604754637E-04  8.119643554341472E-06
   5.797343974543886E-03  1.738000000000001E+03 -1.996229546578603E-20
2461166.072000001 = A.D. 2026-May-05 13:43:40.8001 TDB 
  -1.143853943362316E+01  4.073458580745004E+02 -1.689550979321185E+03
  -1.194585889706732E-03  2.050124705175857E-05  1.303033536579130E-05
   5.797343974543886E-03  1.738000000000001E+03  1.996229546578604E-21
2461166.766000001 = A.D. 2026-May-06 06:23:02.4001 TDB 
  -8.286052549656621E+01  4.028713071135960E+02 -1.688630463783897E+03
  -1.182617995298866E-03 -1.694335220577800E-04  1.760743080831134E-05
   5.797343974543886E-03  1.738000000000000E+03 -1.796606591920743E-20
2461167.460000001 = A.D. 2026-May-06 23:02:24.0001 TDB 
  -1.526611259913780E+02  3.871126920506268E+02 -1.687448471587907E+03
  -1.140618933179434E-03 -3.550769118426710E-04  2.173304373751169E-05
   5.797343974543886E-03  1.738000000000001E+03  4.391705002472927E-20
2461168.154000001 = A.D. 2026-May-07 15:41:45.6001 TDB 
  -2.190676684792953E+02  3.604694802182772E+02 -1.686035323016162E+03
  -1.069649422845045E-03 -5.317154656606126E-04  2.530101655632915E-05
   5.797343974543886E-03  1.738000000000001E+03 -1.996229546578603E-20
2461168.848000001 = A.D. 2026-May-08 08:21:07.2001 TDB 
  -2.803933042701722E+02  3.236175675796827E+02 -1.684427280969489E+03
  -9.715054202871743E-04 -6.948619615135264E-04  2.821972646672530E-05
   5.797343974543885E-03  1.738000000000000E+03 -1.077963955152446E-19
2461169.542000001 = A.D. 2026-May-09 01:00:28.8001 TDB 
  -3.350798411353913E+02  2.774922672734507E+02 -1.682665606015682E+03
  -8.486732954228444E-04 -8.403691999302730E-04  3.041445560409914E-05
   5.797343974543886E-03  1.738000000000001E+03 -2.395475455894324E-20
2461170.236000001 = A.D. 2026-May-09 17:39:50.4001 TDB 
  -3.817373568200546E+02  2.232647111526855E+02 -1.680795484037826E+03
  -7.042674919435927E-04 -9.645354587207295E-04  3.182926226842815E-05
   5.797343974543886E-03  1.738000000000001E+03 -7.186426367682971E-20
2461170.930000001 = A.D. 2026-May-10 10:19:12.0001 TDB 
  -4.191795855870960E+02  1.623122456205228E+02 -1.678864857559612E+03
  -5.419521627614693E-04 -1.064198927163401E-03  3.242831910763694E-05
   5.797343974543886E-03  1.738000000000001E+03 -1.956304955647031E-19
2461171.624000001 = A.D. 2026-May-11 02:58:33.6001 TDB 
  -4.464541721552785E+02  9.618355713872882E+01 -1.676923193083478E+03
  -3.658486886328149E-04 -1.136818679298730E-03  3.219670957122151E-05
   5.797343974543886E-03  1.738000000000000E+03 -1.237662318878734E-19
2461172.318000001 = A.D. 2026-May-11 19:37:55.2001 TDB 
  -4.628670132418391E+02  2.655940001976546E+01 -1.675020216690883E+03
  -1.804313627700443E-04 -1.180540060449126E-03  3.114069296354351E-05
   5.797343974543885E-03  1.738000000000000E+03 -9.581901823577297E-20
2461173.012000001 = A.D. 2026-May-12 12:17:16.8001 TDB 
  -4.680000538166167E+02 -4.479008443183886E+01 -1.673204649158087E+03
   9.586151374407196E-06 -1.194242737922929E-03  2.928745968355941E-05
   5.797343974543886E-03  1.738000000000001E+03 -1.596983637262883E-20
2461173.706000001 = A.D. 2026-May-13 04:56:38.4001 TDB 
  -4.617220697053724E+02 -1.160503761529947E+02 -1.671522970390098E+03
   1.993707194119062E-04 -1.177570098216404E-03  2.668440244563846E-05
   5.797343974543886E-03  1.738000000000000E+03 -1.157813137015590E-19
2461174.400000001 = A.D. 2026-May-13 21:36:00.0001 TDB 
  -4.441921463556476E+02 -1.854087657349206E+02 -1.670018241428703E+03
   3.840929320800366E-04 -1.130939148524892E-03  2.339792870478368E-05
   5.797343974543886E-03  1.738000000000000E+03 -1.197737727947162E-19
2461175.094000001 = A.D. 2026-May-14 14:15:21.6001 TDB 
  -4.158557508137193E+02 -2.511005433626365E+02 -1.668729010845724E+03
   5.590504269802412E-04 -1.055530587157139E-03  1.951183727544846E-05
   5.797343974543885E-03  1.738000000000000E+03 -6.387934549051532E-20
2461175.788000001 = A.D. 2026-May-15 06:54:43.2001 TDB 
  -3.774334852903909E+02 -3.114540011964297E+02 -1.667688330990022E+03
   7.197881399935972E-04 -9.532592309327892E-04  1.512528140555088E-05
   5.797343974543886E-03  1.738000000000001E+03 -9.781524778235157E-20
2461176.482000001 = A.D. 2026-May-15 23:34:04.8001 TDB 
  -3.299028008739463E+02 -3.649330901239634E+02 -1.666922908147855E+03
   8.622123537715380E-04 -8.267255120166317E-04  1.035034388384963E-05
   5.797343974543886E-03  1.738000000000001E+03  2.595098410552184E-20
2461177.176000001 = A.D. 2026-May-16 16:13:26.4001 TDB 
  -2.744731336789133E+02 -4.101766299185606E+02 -1.666452408908557E+03
   9.826955621448509E-04 -6.791492656927941E-04  5.309258501460390E-06
   5.797343974543885E-03  1.738000000000000E+03  3.493401706512557E-20
2461177.870000001 = A.D. 2026-May-17 08:52:48.0001 TDB 
  -2.125550978082631E+02 -4.460330596073043E+02 -1.666288942570606E+03
   1.078169404947260E-03 -5.142875084107173E-04  1.313263061507493E-07
   5.797343974543885E-03  1.738000000000000E+03  3.086358025530513E-20
2461178.564000001 = A.D. 2026-May-18 01:32:09.6001 TDB 
  -1.457245251257386E+02 -4.715898299469674E+02 -1.666436735993140E+03
   1.146203240743989E-03 -3.363383373627343E-04 -5.050406926157376E-06
   5.797343974543886E-03  1.738000000000001E+03  2.395475455894324E-20
2461179.258000001 = A.D. 2026-May-18 18:11:31.2001 TDB 
  -7.568227656854154E+01 -4.861966792170186E+02 -1.666892012738602E+03
   1.185066305957388E-03 -1.498334557145359E-04 -1.010262643699536E-05
   5.797343974543885E-03  1.738000000000000E+03  1.596983637262883E-20
2461179.952000001 = A.D. 2026-May-19 10:50:52.8001 TDB 
  -4.210859886188938E+00 -4.894821931390059E+02 -1.667643082694510E+03
   1.193771846225229E-03  4.047786935645077E-05 -1.489527495690848E-05
   5.797343974543886E-03  1.738000000000000E+03 -3.992459093157208E-21
2461180.646000001 = A.D. 2026-May-20 03:30:14.4001 TDB 
   6.687102874334448E+01 -4.813632252000194E+02 -1.668670641840338E+03
   1.172102086587743E-03  2.297503839542168E-04 -1.930501602957061E-05
   5.797343974543885E-03  1.738000000000001E+03  0.000000000000000E+00
